STARLINK-32507          
1 62132U 24222U   26068.55793403  .00033261  00000+0  12123-2 0  9999
2 62132  43.0013 136.5179 0001550 284.6210  75.4470 15.27593585 72582
FLOCK 4G-25             
1 62646U 25009AP  26068.74572546  .00010373  00000+0  38902-3 0  9990
2 62646  97.4049 151.4141 0000828 316.3151  43.8023 15.27424196 63734
